[{"OBJECT_NAME":"COSMOS 1408 DEB","OBJECT_ID":"1982-092RU","EPOCH":"2026-03-07T04:08:46.308480","MEAN_MOTION":15.46740809,"ECCENTRICITY":0.0013592,"INCLINATION":82.5659,"RA_OF_ASC_NODE":331.9043,"ARG_OF_PERICENTER":266.7664,"MEAN_ANOMALY":93.203,"EPHEMERIS_TYPE":0,"CLASSIFICATION_TYPE":"U","NORAD_CAT_ID":50032,"ELEMENT_SET_NO":999,"REV_AT_EPOCH":23908,"BSTAR":0.0001199956,"MEAN_MOTION_DOT":6.063e-5,"MEAN_MOTION_DDOT":0},{"OBJECT_NAME":"COSMOS 1408 DEB","OBJECT_ID":"1982-092SW","EPOCH":"2026-03-07T05:09:56.653920","MEAN_MOTION":15.71000388,"ECCENTRICITY":0.0014847,"INCLINATION":82.6131,"RA_OF_ASC_NODE":340.4925,"ARG_OF_PERICENTER":132.1183,"MEAN_ANOMALY":228.1344,"EPHEMERIS_TYPE":0,"CLASSIFICATION_TYPE":"U","NORAD_CAT_ID":50058,"ELEMENT_SET_NO":999,"REV_AT_EPOCH":24127,"BSTAR":0.0004736,"MEAN_MOTION_DOT":0.00059942,"MEAN_MOTION_DDOT":0},{"OBJECT_NAME":"COSMOS 1408 DEB","OBJECT_ID":"1982-092ADS","EPOCH":"2026-03-07T14:41:49.028064","MEAN_MOTION":15.33475415,"ECCENTRICITY":0.01246016,"INCLINATION":82.1946,"RA_OF_ASC_NODE":126.8864,"ARG_OF_PERICENTER":261.7359,"MEAN_ANOMALY":96.9737,"EPHEMERIS_TYPE":0,"CLASSIFICATION_TYPE":"U","NORAD_CAT_ID":50404,"ELEMENT_SET_NO":999,"REV_AT_EPOCH":22485,"BSTAR":0.004242213,"MEAN_MOTION_DOT":0.00179553,"MEAN_MOTION_DDOT":0},{"OBJECT_NAME":"COSMOS 1408 DEB","OBJECT_ID":"1982-092ALR","EPOCH":"2026-03-07T04:43:33.919104","MEAN_MOTION":15.62227828,"ECCENTRICITY":0.0023306,"INCLINATION":82.5722,"RA_OF_ASC_NODE":345.8993,"ARG_OF_PERICENTER":192.6165,"MEAN_ANOMALY":167.4513,"EPHEMERIS_TYPE":0,"CLASSIFICATION_TYPE":"U","NORAD_CAT_ID":50621,"ELEMENT_SET_NO":999,"REV_AT_EPOCH":23566,"BSTAR":0.00051073,"MEAN_MOTION_DOT":0.00045732,"MEAN_MOTION_DDOT":0}]
