COSMOS 1408 DEB         
1 50032U 82092RU  26066.17275820  .00006063  00000+0  12000-3 0  9993
2 50032  82.5659 331.9043 0013592 266.7664  93.2030 15.46740809239080
COSMOS 1408 DEB         
1 50058U 82092SW  26066.21523905  .00059942  00000+0  47360-3 0  9997
2 50058  82.6131 340.4925 0014847 132.1183 228.1344 15.71000388241274
COSMOS 1408 DEB         
1 50404U 82092ADS 26066.61237301  .00179553  00000+0  42422-2 0  9992
2 50404  82.1946 126.8864 0124601 261.7359  96.9737 15.33475415224857
COSMOS 1408 DEB         
1 50621U 82092ALR 26066.19692036  .00045732  00000+0  51073-3 0  9990
2 50621  82.5722 345.8993 0023306 192.6165 167.4513 15.62227828235669
